ONEWEB-0128             
1 47274U 20100S   24305.82959535  .00000619  00000+0  16851-2 0  9995
2 47274  87.8851 108.8516 0001771  83.3378 276.7952 13.12445046186913
ONEWEB-0129             
1 47275U 20100T   24305.73224030 -.00000023  00000+0 -98418-4 0  9993
2 47275  87.8845 108.8292 0001115  32.7992 327.3205 13.12446919186835
ONEWEB-0130             
1 47276U 20100U   24306.52221798  .00000499  00000+0  13505-2 0  9997
2 47276  87.8844 108.6770 0001515  82.7343 277.3958 13.12443770186902
ONEWEB-0131             
1 47277U 20100V   24305.90906334  .00000493  00000+0  13341-2 0  9997
2 47277  87.8847 108.8181 0001601  85.7638 274.3674 13.12446053186864
ONEWEB-0132             
1 47278U 20100W   24306.16697816 -.00000241  00000+0 -70528-3 0  9993
2 47278  87.8846 108.7683 0001692  95.7787 264.3534 13.12441690186794
ONEWEB-0133             
1 47279U 20100X   24305.72575215 -.00000318  00000+0 -92010-3 0  9998
2 47279  87.8842 108.8475 0001638  88.7348 271.3968 13.12445144186894
ONEWEB-0134             
1 47280U 20100Y   24305.84742776  .00000247  00000+0  65029-3 0  9990
2 47280  87.8839 108.8093 0001639  78.9822 281.1491 13.12439709186886
ONEWEB-0135             
1 47281U 20100Z   24305.81823081  .00000668  00000+0  18212-2 0  9995
2 47281  87.8847 108.8391 0002100  83.7710 276.3658 13.12440501186907
